CTC1_L_00597001-01
1 80448U 26920OC  26070.40840278  .00000000  00000+0  00000-0 0  9990
2 80448  70.0000   0.0000 0000000   0.0000   0.0000  5.94050274    10
CTC1_L_00597001-02
1 80449U 25034SF  26070.40840278  .00000000  00000+0  00000-0 0  9996
2 80449  70.0000   0.0000 0000000   0.0000  36.0000  5.94050274    10
CTC1_L_00597001-03
1 80450U 24952WN  26070.40840278  .00000000  00000+0  00000-0 0  9996
2 80450  70.0000   0.0000 0000000   0.0000  72.0000  5.94050274    12
CTC1_L_00597001-04
1 80451U 25797VI  26070.40840278  .00000000  00000+0  00000-0 0  9995
2 80451  70.0000   0.0000 0000000   0.0000 108.0000  5.94050274    13
CTC1_L_00597001-05
1 80452U 22633XH  26070.40840278  .00000000  00000+0  00000-0 0  9992
2 80452  70.0000   0.0000 0000000   0.0000 144.0000  5.94050274    14
CTC1_L_00597001-06
1 80453U 26364US  26070.40840278  .00000000  00000+0  00000-0 0  9998
2 80453  70.0000   0.0000 0000000   0.0000 180.0000  5.94050274    15
CTC1_L_00597001-07
1 80454U 24937FG  26070.40840278  .00000000  00000+0  00000-0 0  9993
2 80454  70.0000   0.0000 0000000   0.0000 216.0000  5.94050274    16
CTC1_L_00597001-08
1 80455U 24854BO  26070.40840278  .00000000  00000+0  00000-0 0  9992
2 80455  70.0000   0.0000 0000000   0.0000 252.0000  5.94050274    17
CTC1_L_00597001-09
1 80456U 26126OS  26070.40840278  .00000000  00000+0  00000-0 0  9997
2 80456  70.0000   0.0000 0000000   0.0000 288.0000  5.94050274    17
CTC1_L_00597001-10
1 80457U 24309WE  26070.40840278  .00000000  00000+0  00000-0 0  9999
2 80457  70.0000   0.0000 0000000   0.0000 324.0000  5.94050274    19
CTC1_L_00597002-01
1 80458U 24532LY  26070.40840278  .00000000  00000+0  00000-0 0  9998
2 80458  70.0000  30.0000 0000000   0.0000  12.0000  5.94050274    17
CTC1_L_00597002-02
1 80459U 26798J   26070.40840278  .00000000  00000+0  00000-0 0  9995
2 80459  70.0000  30.0000 0000000   0.0000  48.0000  5.94050274    17
CTC1_L_00597002-03
1 80460U 26605OU  26070.40840278  .00000000  00000+0  00000-0 0  9994
2 80460  70.0000  30.0000 0000000   0.0000  84.0000  5.94050274    19
CTC1_L_00597002-04
1 80461U 23324AT  26070.40840278  .00000000  00000+0  00000-0 0  9990
2 80461  70.0000  30.0000 0000000   0.0000 120.0000  5.94050274    11
CTC1_L_00597002-05
1 80462U 26992VI  26070.40840278  .00000000  00000+0  00000-0 0  9995
2 80462  70.0000  30.0000 0000000   0.0000 156.0000  5.94050274    11
CTC1_L_00597002-06
1 80463U 25965DK  26070.40840278  .00000000  00000+0  00000-0 0  9995
2 80463  70.0000  30.0000 0000000   0.0000 192.0000  5.94050274    12
CTC1_L_00597002-07
1 80464U 22603CW  26070.40840278  .00000000  00000+0  00000-0 0  9992
2 80464  70.0000  30.0000 0000000   0.0000 228.0000  5.94050274    13
CTC1_L_00597002-08
1 80465U 22270NT  26070.40840278  .00000000  00000+0  00000-0 0  9993
2 80465  70.0000  30.0000 0000000   0.0000 264.0000  5.94050274    14
CTC1_L_00597002-09
1 80466U 26484BS  26070.40840278  .00000000  00000+0  00000-0 0  9995
2 80466  70.0000  30.0000 0000000   0.0000 300.0000  5.94050274    16
CTC1_L_00597002-10
1 80467U 22738TL  26070.40840278  .00000000  00000+0  00000-0 0  9994
2 80467  70.0000  30.0000 0000000   0.0000 336.0000  5.94050274    16
CTC1_L_00597003-01
1 80468U 25337QC  26070.40840278  .00000000  00000+0  00000-0 0  9993
2 80468  70.0000  60.0000 0000000   0.0000  24.0000  5.94050274    14
CTC1_L_00597003-02
1 80469U 23826QR  26070.40840278  .00000000  00000+0  00000-0 0  9995
2 80469  70.0000  60.0000 0000000   0.0000  60.0000  5.94050274    15
CTC1_L_00597003-03
1 80470U 26427DX  26070.40840278  .00000000  00000+0  00000-0 0  9997
2 80470  70.0000  60.0000 0000000   0.0000  96.0000  5.94050274    16
CTC1_L_00597003-04
1 80471U 23709RT  26070.40840278  .00000000  00000+0  00000-0 0  9998
2 80471  70.0000  60.0000 0000000   0.0000 132.0000  5.94050274    18
CTC1_L_00597003-05
1 80472U 23285PC  26070.40840278  .00000000  00000+0  00000-0 0  9998
2 80472  70.0000  60.0000 0000000   0.0000 168.0000  5.94050274    18
CTC1_L_00597003-06
1 80473U 25928MZ  26070.40840278  .00000000  00000+0  00000-0 0  9995
2 80473  70.0000  60.0000 0000000   0.0000 204.0000  5.94050274    10
CTC1_L_00597003-07
1 80474U 26038IM  26070.40840278  .00000000  00000+0  00000-0 0  9999
2 80474  70.0000  60.0000 0000000   0.0000 240.0000  5.94050274    11
CTC1_L_00597003-08
1 80475U 22860GQ  26070.40840278  .00000000  00000+0  00000-0 0  9999
2 80475  70.0000  60.0000 0000000   0.0000 276.0000  5.94050274    11
CTC1_L_00597003-09
1 80476U 25443FV  26070.40840278  .00000000  00000+0  00000-0 0  9990
2 80476  70.0000  60.0000 0000000   0.0000 312.0000  5.94050274    13
CTC1_L_00597003-10
1 80477U 23923QC  26070.40840278  .00000000  00000+0  00000-0 0  9992
2 80477  70.0000  60.0000 0000000   0.0000 348.0000  5.94050274    13
CTC1_L_00597004-01
1 80478U 22735AD  26070.40840278  .00000000  00000+0  00000-0 0  9993
2 80478  70.0000  90.0000 0000000   0.0000  36.0000  5.94050274    11
CTC1_L_00597004-02
1 80479U 25489GE  26070.40840278  .00000000  00000+0  00000-0 0  9993
2 80479  70.0000  90.0000 0000000   0.0000  72.0000  5.94050274    12
CTC1_L_00597004-03
1 80480U 26710PL  26070.40840278  .00000000  00000+0  00000-0 0  9993
2 80480  70.0000  90.0000 0000000   0.0000 108.0000  5.94050274    14
CTC1_L_00597004-04
1 80481U 26208XZ  26070.40840278  .00000000  00000+0  00000-0 0  9996
2 80481  70.0000  90.0000 0000000   0.0000 144.0000  5.94050274    15
CTC1_L_00597004-05
1 80482U 26029CG  26070.40840278  .00000000  00000+0  00000-0 0  9998
2 80482  70.0000  90.0000 0000000   0.0000 180.0000  5.94050274    16
CTC1_L_00597004-06
1 80483U 26599BR  26070.40840278  .00000000  00000+0  00000-0 0  9991
2 80483  70.0000  90.0000 0000000   0.0000 216.0000  5.94050274    17
CTC1_L_00597004-07
1 80484U 26828OS  26070.40840278  .00000000  00000+0  00000-0 0  9997
2 80484  70.0000  90.0000 0000000   0.0000 252.0000  5.94050274    18
CTC1_L_00597004-08
1 80485U 22807WW  26070.40840278  .00000000  00000+0  00000-0 0  9991
2 80485  70.0000  90.0000 0000000   0.0000 288.0000  5.94050274    18
CTC1_L_00597004-09
1 80486U 22032XE  26070.40840278  .00000000  00000+0  00000-0 0  9992
2 80486  70.0000  90.0000 0000000   0.0000 324.0000  5.94050274    10
CTC1_L_00597004-10
1 80487U 24889IL  26070.40840278  .00000000  00000+0  00000-0 0  9995
2 80487  70.0000  90.0000 0000000   0.0000   0.0000  5.94050274    12
CTC1_L_00597005-01
1 80488U 25944VG  26070.40840278  .00000000  00000+0  00000-0 0  9999
2 80488  70.0000 120.0000 0000000   0.0000  48.0000  5.94050274    19
CTC1_L_00597005-02
1 80489U 22432ZO  26070.40840278  .00000000  00000+0  00000-0 0  9999
2 80489  70.0000 120.0000 0000000   0.0000  84.0000  5.94050274    10
CTC1_L_00597005-03
1 80490U 24858YP  26070.40840278  .00000000  00000+0  00000-0 0  9995
2 80490  70.0000 120.0000 0000000   0.0000 120.0000  5.94050274    13
CTC1_L_00597005-04
1 80491U 25239C   26070.40840278  .00000000  00000+0  00000-0 0  9990
2 80491  70.0000 120.0000 0000000   0.0000 156.0000  5.94050274    13
CTC1_L_00597005-05
1 80492U 25284IT  26070.40840278  .00000000  00000+0  00000-0 0  9991
2 80492  70.0000 120.0000 0000000   0.0000 192.0000  5.94050274    14
CTC1_L_00597005-06
1 80493U 24731TB  26070.40840278  .00000000  00000+0  00000-0 0  9998
2 80493  70.0000 120.0000 0000000   0.0000 228.0000  5.94050274    15
CTC1_L_00597005-07
1 80494U 26036LX  26070.40840278  .00000000  00000+0  00000-0 0  9999
2 80494  70.0000 120.0000 0000000   0.0000 264.0000  5.94050274    16
CTC1_L_00597005-08
1 80495U 23483PV  26070.40840278  .00000000  00000+0  00000-0 0  9993
2 80495  70.0000 120.0000 0000000   0.0000 300.0000  5.94050274    18
CTC1_L_00597005-09
1 80496U 26158ZM  26070.40840278  .00000000  00000+0  00000-0 0  9996
2 80496  70.0000 120.0000 0000000   0.0000 336.0000  5.94050274    18
CTC1_L_00597005-10
1 80497U 25360ES  26070.40840278  .00000000  00000+0  00000-0 0  9991
2 80497  70.0000 120.0000 0000000   0.0000  12.0000  5.94050274    10
CTC1_L_00597006-01
1 80498U 22689RO  26070.40840278  .00000000  00000+0  00000-0 0  9993
2 80498  70.0000 150.0000 0000000   0.0000  60.0000  5.94050274    17
CTC1_L_00597006-02
1 80499U 23502KD  26070.40840278  .00000000  00000+0  00000-0 0  9999
2 80499  70.0000 150.0000 0000000   0.0000  96.0000  5.94050274    17
CTC1_L_00597006-03
1 80500U 24110MK  26070.40840278  .00000000  00000+0  00000-0 0  9998
2 80500  70.0000 150.0000 0000000   0.0000 132.0000  5.94050274    11
CTC1_L_00597006-04
1 80501U 26234PW  26070.40840278  .00000000  00000+0  00000-0 0  9998
2 80501  70.0000 150.0000 0000000   0.0000 168.0000  5.94050274    11
CTC1_L_00597006-05
1 80502U 25565GI  26070.40840278  .00000000  00000+0  00000-0 0  9995
2 80502  70.0000 150.0000 0000000   0.0000 204.0000  5.94050274    13
CTC1_L_00597006-06
1 80503U 22962WN  26070.40840278  .00000000  00000+0  00000-0 0  9994
2 80503  70.0000 150.0000 0000000   0.0000 240.0000  5.94050274    14
CTC1_L_00597006-07
1 80504U 23574HO  26070.40840278  .00000000  00000+0  00000-0 0  9995
2 80504  70.0000 150.0000 0000000   0.0000 276.0000  5.94050274    14
CTC1_L_00597006-08
1 80505U 24232DM  26070.40840278  .00000000  00000+0  00000-0 0  9998
2 80505  70.0000 150.0000 0000000   0.0000 312.0000  5.94050274    16
CTC1_L_00597006-09
1 80506U 24844DP  26070.40840278  .00000000  00000+0  00000-0 0  9998
2 80506  70.0000 150.0000 0000000   0.0000 348.0000  5.94050274    16
CTC1_L_00597006-10
1 80507U 24711EH  26070.40840278  .00000000  00000+0  00000-0 0  9992
2 80507  70.0000 150.0000 0000000   0.0000  24.0000  5.94050274    18
CTC1_L_00597007-01
1 80508U 25801ID  26070.40840278  .00000000  00000+0  00000-0 0  9994
2 80508  70.0000 180.0000 0000000   0.0000  72.0000  5.94050274    15
CTC1_L_00597007-02
1 80509U 22325WE  26070.40840278  .00000000  00000+0  00000-0 0  9993
2 80509  70.0000 180.0000 0000000   0.0000 108.0000  5.94050274    16
